NORAD_CAT_ID,OBJECT_NAME,OBJECT_TYPE,EPOCH,MEAN_MOTION,ECCENTRICITY,INCLINATION,RA_OF_ASC_NODE,ARG_OF_PERICENTER,MEAN_ANOMALY,BSTAR,MEAN_MOTION_DOT,MEAN_MOTION_DDOT,TLE_LINE0,TLE_LINE1,TLE_LINE2,SEMIMAJOR_AXIS,PERIOD,APOGEE,PERIGEE,DECAYED
52704.0,STARLINK-3999,PAYLOAD,2024-07-24 09:02:59,15.08837258,0.0001464,53.2155,277.6103,98.0509,262.0649,2.775e-06,-2.44e-06,0.0,0 STARLINK-3999,1 52704U 22053BA  24206.37707333 -.00000244  00000-0  27750-5 0  9994,2 52704  53.2155 277.6103 0001464  98.0509 262.0649 15.08837258121317,6917.889,95.438,540.767,538.741,0.0
52704.0,STARLINK-3999,PAYLOAD,2024-07-24 13:49:09,15.08822826,0.0001453,53.215,276.7147,44.5731,315.5377,-0.00018012,-3.152e-05,0.0,0 STARLINK-3999,1 52704U 22053BA  24206.57580325 -.00003152  00000-0 -18012-3 0  9997,2 52704  53.2150 276.7147 0001453  44.5731 315.5377 15.08822826121778,6917.933,95.439,540.803,538.793,0.0
52704.0,STARLINK-3999,PAYLOAD,2024-07-25 10:29:10,15.08834324,0.0001902,53.2167,272.8525,65.6929,294.4262,9.5177e-05,1.227e-05,0.0,0 STARLINK-3999,1 52704U 22053BA  24207.43692623  .00001227  00000-0  95177-4 0  9995,2 52704  53.2167 272.8525 0001902  65.6929 294.4262 15.08834324121476,6917.898,95.438,541.079,538.447,0.0
52704.0,STARLINK-3999,PAYLOAD,2024-07-26 11:55:19,15.08856225,0.0001584,53.2163,268.0925,64.065,296.0505,0.00049469,7.597e-05,0.0,0 STARLINK-3999,1 52704U 22053BA  24208.49675458  .00007597  00000-0  49469-3 0  9997,2 52704  53.2163 268.0925 0001584  64.0650 296.0505 15.08856225121633,6917.831,95.437,540.792,538.6,0.0
52704.0,STARLINK-3999,PAYLOAD,2024-07-26 21:27:38,15.08856813,0.0001281,53.2149,266.3087,83.7807,276.3331,0.00087771,0.00013715,0.0,0 STARLINK-3999,1 52704U 22053BA  24208.89419345  .00013715  00000-0  87771-3 0  9999,2 52704  53.2149 266.3087 0001281  83.7807 276.3331 15.08856813122129,6917.829,95.436,540.58,538.808,0.0
52704.0,STARLINK-3999,PAYLOAD,2024-07-27 10:10:43,15.08838952,0.0001452,53.215,263.9298,82.8291,277.2866,-0.00018431,-3.22e-05,0.0,0 STARLINK-3999,1 52704U 22053BA  24209.42411493 -.00003220  00000-0 -18431-3 0  9994,2 52704  53.2150 263.9298 0001452  82.8291 277.2866 15.08838952121772,6917.884,95.438,540.753,538.744,0.0
52704.0,STARLINK-3999,PAYLOAD,2024-07-27 11:46:06,15.08841031,0.0001447,53.2149,263.6316,88.3823,271.7335,-0.0001274,-2.315e-05,0.0,0 STARLINK-3999,1 52704U 22053BA  24209.49035404 -.00002315  00000-0 -12740-3 0  9996,2 52704  53.2149 263.6316 0001447  88.3823 271.7335 15.08841031122216,6917.877,95.437,540.743,538.741,0.0
52704.0,STARLINK-3999,PAYLOAD,2024-07-28 10:01:30,15.08844037,0.0001459,53.2148,259.4675,91.2742,268.8417,0.00043194,6.594e-05,0.0,0 STARLINK-3999,1 52704U 22053BA  24210.41771296  .00006594  00000-0  43194-3 0  9994,2 52704  53.2148 259.4675 0001459  91.2742 268.8417 15.08844037121926,6917.868,95.437,540.742,538.724,0.0
52704.0,STARLINK-3999,PAYLOAD,2024-07-29 09:52:17,15.0884438,0.0001396,53.2146,255.0096,87.6509,272.4643,0.00022911,3.361e-05,0.0,0 STARLINK-3999,1 52704U 22053BA  24211.41131319  .00003361  00000-0  22911-3 0  9994,2 52704  53.2146 255.0096 0001396  87.6509 272.4643 15.08844380122073,6917.867,95.437,540.698,538.766,0.0
52704.0,STARLINK-3999,PAYLOAD,2024-07-29 19:24:36,15.08846552,0.0001383,53.2146,253.2259,87.9225,272.1926,0.00021009,3.058e-05,0.0,0 STARLINK-3999,1 52704U 22053BA  24211.80875138  .00003058  00000-0  21009-3 0  9991,2 52704  53.2146 253.2259 0001383  87.9225 272.1926 15.08846552122566,6917.86,95.437,540.682,538.769,0.0
52704.0,STARLINK-3999,PAYLOAD,2024-07-30 09:43:04,15.08835132,0.0001471,53.2154,250.5506,91.3167,268.7993,-3.4333e-05,-8.34e-06,0.0,0 STARLINK-3999,1 52704U 22053BA  24212.40491707 -.00000834  00000-0 -34333-4 0  9990,2 52704  53.2154 250.5506 0001471  91.3167 268.7993 15.08835132122222,6917.895,95.438,540.778,538.743,0.0
52704.0,STARLINK-3999,PAYLOAD,2024-07-30 19:15:23,15.08845577,0.0001578,53.2167,248.7663,98.7831,261.334,9.8764e-05,1.284e-05,0.0,0 STARLINK-3999,1 52704U 22053BA  24212.80235255  .00001284  00000-0  98764-4 0  9994,2 52704  53.2167 248.7663 0001578  98.7831 261.3340 15.08845577122281,6917.863,95.437,540.82,538.637,0.0
52704.0,STARLINK-3999,PAYLOAD,2024-07-31 09:33:52,15.08829927,0.0001656,53.2174,246.0907,101.626,258.4918,1.9356e-05,2e-07,0.0,0 STARLINK-3999,1 52704U 22053BA  24213.39852632  .00000020  00000-0  19356-4 0  9990,2 52704  53.2174 246.0907 0001656 101.6260 258.4918 15.08829927122377,6917.911,95.438,540.922,538.631,0.0
52704.0,STARLINK-3999,PAYLOAD,2024-07-31 19:06:11,15.08837118,0.0001511,53.2168,244.3048,93.2643,266.8522,4.3178e-05,3.99e-06,0.0,0 STARLINK-3999,1 52704U 22053BA  24213.79596243  .00000399  00000-0  43178-4 0  9995,2 52704  53.2168 244.3048 0001511  93.2643 266.8522 15.08837118122430,6917.889,95.438,540.799,538.709,0.0
52704.0,STARLINK-3999,PAYLOAD,2024-08-01 11:00:01,15.08848629,0.0001365,53.2156,241.3289,89.6514,270.4635,0.00018234,2.616e-05,0.0,0 STARLINK-3999,1 52704U 22053BA  24214.45835305  .00002616  00000-0  18234-3 0  9992,2 52704  53.2156 241.3289 0001365  89.6514 270.4635 15.08848629122530,6917.854,95.437,540.663,538.775,0.0
52704.0,STARLINK-3999,PAYLOAD,2024-08-02 09:15:26,15.08839405,0.0001331,53.2153,237.1644,95.7457,264.3687,0.00011034,1.469e-05,0.0,0 STARLINK-3999,1 52704U 22053BA  24215.38572097  .00001469  00000-0  11034-3 0  9997,2 52704  53.2153 237.1644 0001331  95.7457 264.3687 15.08839405122678,6917.882,95.438,540.668,538.826,0.0
52704.0,STARLINK-3999,PAYLOAD,2024-08-03 07:30:50,15.08839313,0.0001327,53.2152,233.0026,98.0964,262.0179,0.00015806,2.228e-05,0.0,0 STARLINK-3999,1 52704U 22053BA  24216.31307924  .00002228  00000-0  15806-3 0  9991,2 52704  53.2152 233.0026 0001327  98.0964 262.0179 15.08839313123243,6917.882,95.438,540.665,538.829,0.0
52704.0,STARLINK-3999,PAYLOAD,2024-08-03 18:38:31,15.08849879,0.0001362,53.2153,230.9197,98.8711,261.2436,9.4131e-05,1.211e-05,0.0,0 STARLINK-3999,1 52704U 22053BA  24216.77675064  .00001211  00000-0  94131-4 0  9994,2 52704  53.2153 230.9197 0001362  98.8711 261.2436 15.08849879122880,6917.85,95.437,540.657,538.773,0.0
52704.0,STARLINK-3999,PAYLOAD,2024-08-04 04:10:50,15.0884068,0.0001691,53.2164,229.1347,108.3453,251.7723,7.049e-05,8.34e-06,0.0,0 STARLINK-3999,1 52704U 22053BA  24217.17419643  .00000834  00000-0  70490-4 0  9990,2 52704  53.2164 229.1347 0001691 108.3453 251.7723 15.08840680122945,6917.878,95.438,540.913,538.573,0.0
52704.0,STARLINK-3999,PAYLOAD,2024-08-04 07:21:37,15.08836285,0.0001473,53.2157,228.5419,97.7669,262.3491,2.1153e-05,4.9e-07,0.0,0 STARLINK-3999,1 52704U 22053BA  24217.30668076  .00000049  00000-0  21153-4 0  9991,2 52704  53.2157 228.5419 0001473  97.7669 262.3491 15.08836285123394,6917.892,95.438,540.776,538.738,0.0
52704.0,STARLINK-3999,PAYLOAD,2024-08-05 07:12:23,15.08843592,0.0001518,53.2162,224.081,97.2197,262.8967,2.193e-05,6.1e-07,0.0,0 STARLINK-3999,1 52704U 22053BA  24218.30027538  .00000061  00000-0  21930-4 0  9991,2 52704  53.2162 224.0810 0001518  97.2197 262.8967 15.08843592123119,6917.869,95.437,540.785,538.684,0.0
52704.0,STARLINK-3999,PAYLOAD,2024-08-06 05:27:48,15.08828517,0.0001421,53.2159,219.917,94.2601,265.8553,5.9743e-06,-1.93e-06,0.0,0 STARLINK-3999,1 52704U 22053BA  24219.22764510 -.00000193  00000-0  59743-5 0  9992,2 52704  53.2159 219.9170 0001421  94.2601 265.8553 15.08828517123256,6917.915,95.438,540.764,538.797,0.0
52704.0,STARLINK-3999,PAYLOAD,2024-08-06 07:03:11,15.08828951,0.0001435,53.2159,219.6194,95.1973,264.9183,7.1525e-06,-1.74e-06,0.0,0 STARLINK-3999,1 52704U 22053BA  24219.29388504 -.00000174  00000-0  71525-5 0  9995,2 52704  53.2159 219.6194 0001435  95.1973 264.9183 15.08828951123695,6917.914,95.438,540.772,538.786,0.0
52704.0,STARLINK-3999,PAYLOAD,2024-08-06 16:35:30,15.08834146,0.0001374,53.2159,217.8342,93.0193,267.0956,9.1071e-06,-1.43e-06,0.0,0 STARLINK-3999,1 52704U 22053BA  24219.69132304 -.00000143  00000-0  91071-5 0  9998,2 52704  53.2159 217.8342 0001374  93.0193 267.0956 15.08834146123755,6917.898,95.438,540.714,538.813,0.0
52704.0,STARLINK-3999,PAYLOAD,2024-08-07 00:32:25,15.08838051,0.0001246,53.2152,216.3466,90.3195,269.794,3.0991e-05,2.05e-06,0.0,0 STARLINK-3999,1 52704U 22053BA  24220.02252036  .00000205  00000-0  30991-4 0  9993,2 52704  53.2152 216.3466 0001246  90.3195 269.7940 15.08838051123378,6917.886,95.438,540.613,538.889,0.0
52704.0,STARLINK-3999,PAYLOAD,2024-08-08 08:20:08,15.08836958,0.0001295,53.2155,210.399,87.8058,272.3083,0.00011961,1.616e-05,0.0,0 STARLINK-3999,1 52704U 22053BA  24221.34732127  .00001616  00000-0  11961-3 0  9995,2 52704  53.2155 210.3990 0001295  87.8058 272.3083 15.08836958124003,6917.89,95.438,540.651,538.859,0.0
52704.0,STARLINK-3999,PAYLOAD,2024-08-08 22:38:36,15.08840874,0.000141,53.2158,207.7238,98.9479,261.1673,4.5204e-05,4.32e-06,0.0,0 STARLINK-3999,1 52704U 22053BA  24221.94348169  .00000432  00000-0  45204-4 0  9993,2 52704  53.2158 207.7238 0001410  98.9479 261.1673 15.08840874124092,6917.878,95.437,540.718,538.767,0.0
52704.0,STARLINK-3999,PAYLOAD,2024-08-09 05:00:09,15.08842992,0.0001395,53.2154,206.5338,103.9561,256.1586,3.4656e-05,2.64e-06,0.0,0 STARLINK-3999,1 52704U 22053BA  24222.20844046  .00000264  00000-0  34656-4 0  9990,2 52704  53.2154 206.5338 0001395 103.9561 256.1586 15.08842992124132,6917.871,95.437,540.701,538.771,0.0
52704.0,STARLINK-3999,PAYLOAD,2024-08-09 16:07:50,15.08850577,0.0001244,53.2156,204.452,89.3944,270.7191,0.00010461,1.378e-05,0.0,0 STARLINK-3999,1 52704U 22053BA  24222.67211201  .00001378  00000-0  10461-3 0  9996,2 52704  53.2156 204.4520 0001244  89.3944 270.7191 15.08850577123770,6917.848,95.437,540.574,538.852,0.0
52704.0,STARLINK-3999,PAYLOAD,2024-08-09 22:29:24,15.08834742,0.0001759,53.2159,203.2645,82.8539,277.2653,-2.2539e-06,-3.24e-06,0.0,0 STARLINK-3999,1 52704U 22053BA  24222.93708726 -.00000324  00000-0 -22539-5 0  9991,2 52704  53.2159 203.2645 0001759  82.8539 277.2653 15.08834742124241,6917.896,95.438,540.978,538.545,0.0
